{"type": "FeatureCollection", "features": [ {"type": "Feature", "properties": {"norad_id": 34117, "name": "COSMOS 2251 DEB", "group": "cosmos-2251-debris", "lat": -45.49595286273973, "lon": -29.342108372585102, "alt_km": 779.5191360657136, "timestamp": "2025-12-10T16:57:12.032660+00:00", "meta": {"OBJECT_NAME": "COSMOS 2251 DEB", "OBJECT_ID": "1993-036KN", "EPOCH": "2025-12-10T10:30:21.055680", "MEAN_MOTION": 14.39996052, "ECCENTRICITY": 0.0054466, "INCLINATION": 74.0405, "RA_OF_ASC_NODE": 348.0816, "ARG_OF_PERICENTER": 65.1472, "MEAN_ANOMALY": 295.5332, "EPHEMERIS_TYPE": 0, "CLASSIFICATION_TYPE": "U", "NORAD_CAT_ID": 34117, "ELEMENT_SET_NO": 999, "REV_AT_EPOCH": 88090, "BSTAR": 0.00096164, "MEAN_MOTION_DOT": 3.057e-05, "MEAN_MOTION_DDOT": 0}, "tle": {"line1": "1 34117U 93036KN  25344.43774370  .00003057  00000+0  96164-3 0  9993", "line2": "2 34117  74.0405 348.0816 0054466  65.1472 295.5332 14.39996052880900"}}, "geometry": {"type": "Point", "coordinates": [-29.342108372585102, -45.49595286273973]}}, {"type": "Feature", "properties": {"norad_id": 34118, "name": "COSMOS 2251 DEB", "group": "cosmos-2251-debris", "lat": -10.811681468036843, "lon": -109.73206015130921, "alt_km": 593.7304307425575, "timestamp": "2025-12-10T16:57:12.032670+00:00", "meta": {"OBJECT_NAME": "COSMOS 2251 DEB", "OBJECT_ID": "1993-036KP", "EPOCH": "2025-12-10T11:05:55.152960", "MEAN_MOTION": 14.93796733, "ECCENTRICITY": 0.0059912, "INCLINATION": 73.9523, "RA_OF_ASC_NODE": 253.9124, "ARG_OF_PERICENTER": 84.8486, "MEAN_ANOMALY": 33.3855, "EPHEMERIS_TYPE": 0, "CLASSIFICATION_TYPE": "U", "NORAD_CAT_ID": 34118, "ELEMENT_SET_NO": 999, "REV_AT_EPOCH": 89142, "BSTAR": 0.0029925, "MEAN_MOTION_DOT": 0.00032999, "MEAN_MOTION_DDOT": 0}, "tle": {"line1": "1 34118U 93036KP  25344.46244390  .00032999  00000+0  29925-2 0  9998", "line2": "2 34118  73.9523 253.9124 0059912  84.8486  33.3855 14.93796733891421"}}, "geometry": {"type": "Point", "coordinates": [-109.73206015130921, -10.811681468036843]}}, {"type": "Feature", "properties": {"norad_id": 34120, "name": "COSMOS 2251 DEB", "group": "cosmos-2251-debris", "lat": 12.3229781852812, "lon": -136.66142392047746, "alt_km": 789.9481965834948, "timestamp": "2025-12-10T16:57:12.032680+00:00", "meta": {"OBJECT_NAME": "COSMOS 2251 DEB", "OBJECT_ID": "1993-036KR", "EPOCH": "2025-12-10T01:59:33.650304", "MEAN_MOTION": 13.98678879, "ECCENTRICITY": 0.01818435, "INCLINATION": 73.9915, "RA_OF_ASC_NODE": 220.8223, "ARG_OF_PERICENTER": 49.1022, "MEAN_ANOMALY": 67.4561, "EPHEMERIS_TYPE": 0, "CLASSIFICATION_TYPE": "U", "NORAD_CAT_ID": 34120, "ELEMENT_SET_NO": 999, "REV_AT_EPOCH": 85943, "BSTAR": 0.00050360812, "MEAN_MOTION_DOT": 8.1e-06, "MEAN_MOTION_DDOT": 0}, "tle": {"line1": "1 34120U 93036KR  25344.08302836  .00000810  00000+0  50361-3 0  9995", "line2": "2 34120  73.9915 220.8223 0181843  49.1022  67.4561 13.98678879859432"}}, "geometry": {"type": "Point", "coordinates": [-136.66142392047746, 12.3229781852812]}}, {"type": "Feature", "properties": {"norad_id": 34121, "name": "COSMOS 2251 DEB", "group": "cosmos-2251-debris", "lat": -73.30608403190105, "lon": 27.482129584992315, "alt_km": 778.6685634916857, "timestamp": "2025-12-10T16:57:12.032690+00:00", "meta": {"OBJECT_NAME": "COSMOS 2251 DEB", "OBJECT_ID": "1993-036KS", "EPOCH": "2025-12-10T12:34:30.002304", "MEAN_MOTION": 13.91916791, "ECCENTRICITY": 0.0240128, "INCLINATION": 73.9929, "RA_OF_ASC_NODE": 100.9674, "ARG_OF_PERICENTER": 306.8919, "MEAN_ANOMALY": 135.5233, "EPHEMERIS_TYPE": 0, "CLASSIFICATION_TYPE": "U", "NORAD_CAT_ID": 34121, "ELEMENT_SET_NO": 999, "REV_AT_EPOCH": 85094, "BSTAR": 0.0016916, "MEAN_MOTION_DOT": 2.704e-05, "MEAN_MOTION_DDOT": 0}, "tle": {"line1": "1 34121U 93036KS  25344.52395836  .00002704  00000+0  16916-2 0  9998", "line2": "2 34121  73.9929 100.9674 0240128 306.8919 135.5233 13.91916791850947"}}, "geometry": {"type": "Point", "coordinates": [27.482129584992315, -73.30608403190105]}}, {"type": "Feature", "properties": {"norad_id": 34122, "name": "COSMOS 2251 DEB", "group": "cosmos-2251-debris", "lat": -8.443379789083808, "lon": 120.11082997265223, "alt_km": 628.4960870496925, "timestamp": "2025-12-10T16:57:12.032700+00:00", "meta": {"OBJECT_NAME": "COSMOS 2251 DEB", "OBJECT_ID": "1993-036KT", "EPOCH": "2025-12-10T10:41:19.364064", "MEAN_MOTION": 14.64998703, "ECCENTRICITY": 0.0084194, "INCLINATION": 74.036, "RA_OF_ASC_NODE": 123.0481, "ARG_OF_PERICENTER": 20.5599, "MEAN_ANOMALY": 35.1477, "EPHEMERIS_TYPE": 0, "CLASSIFICATION_TYPE": "U", "NORAD_CAT_ID": 34122, "ELEMENT_SET_NO": 999, "REV_AT_EPOCH": 88651, "BSTAR": 0.0017252, "MEAN_MOTION_DOT": 9.721e-05, "MEAN_MOTION_DDOT": 0}, "tle": {"line1": "1 34122U 93036KT  25344.44536301  .00009721  00000+0  17252-2 0  9994", "line2": "2 34122  74.0360 123.0481 0084194  20.5599  35.1477 14.64998703886515"}}, "geometry": {"type": "Point", "coordinates": [120.11082997265223, -8.443379789083808]}}, {"type": "Feature", "properties": {"norad_id": 34127, "name": "COSMOS 2251 DEB", "group": "cosmos-2251-debris", "lat": 32.08701039954431, "lon": -142.70179084393186, "alt_km": 800.2474171499725, "timestamp": "2025-12-10T16:57:12.032710+00:00", "meta": {"OBJECT_NAME": "COSMOS 2251 DEB", "OBJECT_ID": "1993-036KY", "EPOCH": "2025-12-10T04:39:56.961792", "MEAN_MOTION": 14.31501801, "ECCENTRICITY": 0.01149213, "INCLINATION": 74.179, "RA_OF_ASC_NODE": 48.4635, "ARG_OF_PERICENTER": 249.1574, "MEAN_ANOMALY": 141.1493, "EPHEMERIS_TYPE": 0, "CLASSIFICATION_TYPE": "U", "NORAD_CAT_ID": 34127, "ELEMENT_SET_NO": 999, "REV_AT_EPOCH": 86735, "BSTAR": 0.0025855859, "MEAN_MOTION_DOT": 7.369e-05, "MEAN_MOTION_DDOT": 0}, "tle": {"line1": "1 34127U 93036KY  25344.19440928  .00007369  00000+0  25856-2 0  9995", "line2": "2 34127  74.1790  48.4635 0114921 249.1574 141.1493 14.31501801867353"}}, "geometry": {"type": "Point", "coordinates": [-142.70179084393186, 32.08701039954431]}}, {"type": "Feature", "properties": {"norad_id": 34128, "name": "COSMOS 2251 DEB", "group": "cosmos-2251-debris", "lat": -24.195611980764294, "lon": 128.2805945929684, "alt_km": 585.0753975117332, "timestamp": "2025-12-10T16:57:12.032720+00:00", "meta": {"OBJECT_NAME": "COSMOS 2251 DEB", "OBJECT_ID": "1993-036KZ", "EPOCH": "2025-12-10T07:00:14.385888", "MEAN_MOTION": 15.00965109, "ECCENTRICITY": 0.0026257, "INCLINATION": 73.9998, "RA_OF_ASC_NODE": 301.718, "ARG_OF_PERICENTER": 54.4419, "MEAN_ANOMALY": 71.4284, "EPHEMERIS_TYPE": 0, "CLASSIFICATION_TYPE": "U", "NORAD_CAT_ID": 34128, "ELEMENT_SET_NO": 999, "REV_AT_EPOCH": 89130, "BSTAR": 0.0029279, "MEAN_MOTION_DOT": 0.00037786, "MEAN_MOTION_DDOT": 0}, "tle": {"line1": "1 34128U 93036KZ  25344.29183317  .00037786  00000+0  29279-2 0  9992", "line2": "2 34128  73.9998 301.7180 0026257  54.4419  71.4284 15.00965109891307"}}, "geometry": {"type": "Point", "coordinates": [128.2805945929684, -24.195611980764294]}}, {"type": "Feature", "properties": {"norad_id": 34129, "name": "COSMOS 2251 DEB", "group": "cosmos-2251-debris", "lat": -49.82966576033618, "lon": -36.31722287254066, "alt_km": 660.4324028215842, "timestamp": "2025-12-10T16:57:12.032730+00:00", "meta": {"OBJECT_NAME": "COSMOS 2251 DEB", "OBJECT_ID": "1993-036LA", "EPOCH": "2025-12-10T10:40:59.716704", "MEAN_MOTION": 14.75667081, "ECCENTRICITY": 0.0032842, "INCLINATION": 74.0356, "RA_OF_ASC_NODE": 344.016, "ARG_OF_PERICENTER": 66.3081, "MEAN_ANOMALY": 294.1533, "EPHEMERIS_TYPE": 0, "CLASSIFICATION_TYPE": "U", "NORAD_CAT_ID": 34129, "ELEMENT_SET_NO": 999, "REV_AT_EPOCH": 61264, "BSTAR": 0.0019116, "MEAN_MOTION_DOT": 0.0001317, "MEAN_MOTION_DDOT": 0}, "tle": {"line1": "1 34129U 93036LA  25344.44513561  .00013170  00000+0  19116-2 0  9998", "line2": "2 34129  74.0356 344.0160 0032842  66.3081 294.1533 14.75667081612648"}}, "geometry": {"type": "Point", "coordinates": [-36.31722287254066, -49.82966576033618]}}, {"type": "Feature", "properties": {"norad_id": 34136, "name": "COSMOS 2251 DEB", "group": "cosmos-2251-debris", "lat": 64.09238026057774, "lon": 82.79419099939808, "alt_km": 633.2900631959046, "timestamp": "2025-12-10T16:57:12.032740+00:00", "meta": {"OBJECT_NAME": "COSMOS 2251 DEB", "OBJECT_ID": "1993-036LH", "EPOCH": "2025-12-10T10:13:20.579232", "MEAN_MOTION": 14.80054487, "ECCENTRICITY": 0.0085982, "INCLINATION": 74.0207, "RA_OF_ASC_NODE": 47.1956, "ARG_OF_PERICENTER": 170.7669, "MEAN_ANOMALY": 205.8767, "EPHEMERIS_TYPE": 0, "CLASSIFICATION_TYPE": "U", "NORAD_CAT_ID": 34136, "ELEMENT_SET_NO": 999, "REV_AT_EPOCH": 89976, "BSTAR": 0.00074248, "MEAN_MOTION_DOT": 5.959e-05, "MEAN_MOTION_DDOT": 0}, "tle": {"line1": "1 34136U 93036LH  25344.42593263  .00005959  00000+0  74248-3 0  9995", "line2": "2 34136  74.0207  47.1956 0085982 170.7669 205.8767 14.80054487899764"}}, "geometry": {"type": "Point", "coordinates": [82.79419099939808, 64.09238026057774]}}, {"type": "Feature", "properties": {"norad_id": 34139, "name": "COSMOS 2251 DEB", "group": "cosmos-2251-debris", "lat": -51.93302341639356, "lon": -123.50724360876528, "alt_km": 675.4813541298081, "timestamp": "2025-12-10T16:57:12.032750+00:00", "meta": {"OBJECT_NAME": "COSMOS 2251 DEB", "OBJECT_ID": "1993-036LL", "EPOCH": "2025-12-10T04:43:35.266080", "MEAN_MOTION": 14.59005201, "ECCENTRICITY": 0.00425472, "INCLINATION": 74.031, "RA_OF_ASC_NODE": 258.9095, "ARG_OF_PERICENTER": 330.4044, "MEAN_ANOMALY": 180.1161, "EPHEMERIS_TYPE": 0, "CLASSIFICATION_TYPE": "U", "NORAD_CAT_ID": 34139, "ELEMENT_SET_NO": 999, "REV_AT_EPOCH": 88112, "BSTAR": 0.0022458073, "MEAN_MOTION_DOT": 0.00010666, "MEAN_MOTION_DDOT": 0}, "tle": {"line1": "1 34139U 93036LL  25344.19693595  .00010666  00000+0  22458-2 0  9997", "line2": "2 34139  74.0310 258.9095 0042547 330.4044 180.1161 14.59005201881120"}}, "geometry": {"type": "Point", "coordinates": [-123.50724360876528, -51.93302341639356]}}]}